H1 CPF 01  gfz 2021 07 16 12  6972 tandemx   
H2 1003001  6202 36605    2021 07 16 12 59 42 2021 07 21 00 00 42   120 1 1  0 0 0
H9
10 0 59415  65502.000000  0   -5448546.037    788097.077  -4149242.931
10 0 59415  65622.000000  0   -4838148.294    892372.111  -4829743.856
10 0 59415  65742.000000  0   -4142075.727    969705.517  -5425704.906
10 0 59415  65862.000000  0   -3372997.176   1017382.979  -5926794.410
10 0 59415  65982.000000  0   -2544856.438   1033438.312  -6324348.981
10 0 59415  66102.000000  0   -1672615.869   1016704.554  -6611511.459
10 0 59415  66222.000000  0    -771985.399    966847.961  -6783338.187
10 0 59415  66342.000000  0     140856.547    884382.879  -6836873.499
10 0 59415  66462.000000  0    1049545.535    770668.384  -6771195.154
10 0 59415  66582.000000  0    1937817.796    627886.227  -6587431.161
10 0 59415  66702.000000  0    2789795.575    459000.483  -6288742.202
10 0 59415  66822.000000  0    3590266.207    267699.989  -5880273.022
10 0 59415  66942.000000  0    4324950.801     58322.991  -5369072.049
10 0 59415  67062.000000  0    4980759.330   -164233.809  -4763981.510
10 0 59415  67182.000000  0    5546030.047   -394620.673  -4075496.245
10 0 59415  67302.000000  0    6010745.288   -627153.311  -3315591.079
10 0 59415  67422.000000  0    6366719.936   -855942.026  -2497520.562
10 0 59415  67542.000000  0    6607758.608  -1075029.065  -1635592.233
10 0 59415  67662.000000  0    6729776.038  -1278530.174   -744916.440
10 0 59415  67782.000000  0    6730876.781  -1460777.411    158861.642
10 0 59415  67902.000000  0    6611392.663  -1616459.652   1059843.044
10 0 59415  68022.000000  0    6373874.508  -1740757.141   1942163.272
10 0 59415  68142.000000  0    6023039.721  -1829466.691   2790280.798
10 0 59415  68262.000000  0    5565675.174  -1879112.927   3589259.835
10 0 59415  68382.000000  0    5010498.784  -1887044.393   4325039.311
10 0 59415  68502.000000  0    4367984.539  -1851511.170   4984683.096
10 0 59415  68622.000000  0    3650156.640  -1771722.046   5556608.020
10 0 59415  68742.000000  0    2870355.191  -1647881.312   6030786.166
10 0 59415  68862.000000  0    2042980.099  -1481203.646   6398915.257
10 0 59415  68982.000000  0    1183220.182  -1273907.764   6654558.346
10 0 59415  69102.000000  0     306770.536  -1029188.063   6793250.779
10 0 59415  69222.000000  0    -570455.392   -751164.734   6812572.487
10 0 59415  69342.000000  0   -1432613.756   -444814.181   6712186.516
10 0 59415  69462.000000  0   -2264215.030   -115880.190   6493844.406
10 0 59415  69582.000000  0   -3050401.133    229233.054   6161358.046
10 0 59415  69702.000000  0   -3777211.783    583584.247   5720538.251
10 0 59415  69822.000000  0   -4431836.242    939832.302   5179099.342
10 0 59415  69942.000000  0   -5002845.058   1290385.969   4546530.083
10 0 59415  70062.000000  0   -5480397.720   1627563.280   3833932.211
10 0 59415  70182.000000  0   -5856420.497   1943756.790   3053828.226
10 0 59415  70302.000000  0   -6124751.512   2231601.383   2219942.423
10 0 59415  70422.000000  0   -6281250.126   2484140.778   1346957.759
10 0 59415  70542.000000  0   -6323866.848   2694988.983    450251.608
10 0 59415  70662.000000  0   -6252670.086   2858481.543   -454383.175
10 0 59415  70782.000000  0   -6069830.490   2969812.957  -1351025.226
10 0 59415  70902.000000  0   -5779562.739   3025156.802  -2223913.626
10 0 59415  71022.000000  0   -5388026.073   3021765.950  -3057733.430
10 0 59415  71142.000000  0   -4903186.093   2958049.097  -3837889.255
10 0 59415  71262.000000  0   -4334643.287   2833623.238  -4550761.822
10 0 59415  71382.000000  0   -3693432.981   2649340.754  -5183942.426
10 0 59415  71502.000000  0   -2991802.410   2407291.180  -5726441.156
10 0 59415  71622.000000  0   -2242971.894   2110779.108  -6168867.733
10 0 59415  71742.000000  0   -1460882.015   1764277.781  -6503583.996
10 0 59415  71862.000000  0    -659933.817   1373359.598  -6724823.122
10 0 59415  71982.000000  0     145272.531    944605.872  -6828778.643
10 0 59415  72102.000000  0     940197.055    485497.530  -6813662.535
10 0 59415  72222.000000  0    1710616.820      4287.367  -6679734.722
10 0 59415  72342.000000  0    2442875.067   -490145.059  -6429297.955
10 0 59415  72462.000000  0    3124118.136   -988452.636  -6066662.994
10 0 59415  72582.000000  0    3742518.810  -1480992.516  -5598081.555
10 0 59415  72702.000000  0    4287481.791  -1958007.953  -5031649.881
10 0 59415  72822.000000  0    4749829.936  -2409819.573  -4377180.390
10 0 59415  72942.000000  0    5121965.153  -2827020.333  -3646042.137
10 0 59415  73062.000000  0    5398001.989  -3200670.638  -2850972.549
10 0 59415  73182.000000  0    5573870.810  -3522489.614  -2005861.087
10 0 59415  73302.000000  0    5647386.017  -3785037.695  -1125508.437
10 0 59415  73422.000000  0    5618278.061  -3981886.734   -225365.890
10 0 59415  73542.000000  0    5488187.401  -4107772.216    678740.903
10 0 59415  73662.000000  0    5260619.602  -4158724.441   1570898.039
10 0 59415  73782.000000  0    4940861.776  -4132173.519   2435393.191
10 0 59415  73902.000000  0    4535862.839  -4027024.445   3257000.812
10 0 59415  74022.000000  0    4054082.121  -3843702.658   4021256.696
10 0 59415  74142.000000  0    3505309.693  -3584169.187   4714717.872
10 0 59415  74262.000000  0    2900461.020  -3251903.413   5325201.359
10 0 59415  74382.000000  0    2251354.628  -2851854.758   5841996.690
10 0 59415  74502.000000  0    1570475.871  -2390365.232   6256050.555
10 0 59415  74622.000000  0     870732.740  -1875065.073   6560119.277
10 0 59415  74742.000000  0     165208.979  -1314743.477   6748889.494
10 0 59415  74862.000000  0    -533080.989   -719196.448   6819065.396
10 0 59415  74982.000000  0   -1211431.227    -99054.449   6769422.014
10 0 59415  75102.000000  0   -1857674.482    534407.018   6600825.221
10 0 59415  75222.000000  0   -2460399.726   1169471.826   6316217.624
10 0 59415  75342.000000  0   -3009154.015   1794198.929   5920570.520
10 0 59415  75462.000000  0   -3494625.531   2396646.397   5420802.899
10 0 59415  75582.000000  0   -3908805.750   2965100.972   4825667.091
10 0 59415  75702.000000  0   -4245126.498   3488308.091   4145600.734
10 0 59415  75822.000000  0   -4498569.941   3955697.899   3392548.162
10 0 59415  75942.000000  0   -4665748.397   4357602.674   2579752.307
10 0 59415  76062.000000  0   -4744950.895   4685461.325   1721520.814
10 0 59415  76182.000000  0   -4736155.726   4932004.602    832969.610
10 0 59415  76302.000000  0   -4641009.192   5091415.111    -70249.757
10 0 59415  76422.000000  0   -4462771.471   5159460.687   -972233.652
10 0 59415  76542.000000  0   -4206228.024   5133596.152  -1857117.641
10 0 59415  76662.000000  0   -3877568.626   5013028.684  -2709363.401
10 0 59415  76782.000000  0   -3484241.595   4798748.748  -3514038.288
10 0 59415  76902.000000  0   -3034783.345   4493523.058  -4257079.604
10 0 59415  77022.000000  0   -2538630.633   4101852.937  -4925537.833
10 0 59415  77142.000000  0   -2005920.537   3629900.808  -5507795.526
10 0 59415  77262.000000  0   -1447282.753   3085386.616  -5993761.347
10 0 59415  77382.000000  0    -873627.288   2477454.485  -6375035.406
10 0 59415  77502.000000  0    -295932.775   1816514.181  -6645042.565
10 0 59415  77622.000000  0     274959.876   1114061.690  -6799134.581
10 0 59415  77742.000000  0     828545.603    382481.135  -6834662.055
10 0 59415  77862.000000  0    1354844.563   -365169.514  -6751015.788
10 0 59415  77982.000000  0    1844577.634  -1115386.795  -6549634.591
10 0 59415  78102.000000  0    2289325.842  -1854458.984  -6233982.964
10 0 59415  78222.000000  0    2681673.344  -2568710.296  -5809498.210
10 0 59415  78342.000000  0    3015331.390  -3244749.993  -5283508.285
10 0 59415  78462.000000  0    3285242.317  -3869724.412  -4665116.107
10 0 59415  78582.000000  0    3487658.309  -4431562.335  -3965050.947
10 0 59415  78702.000000  0    3620195.528  -4919210.966  -3195493.105
10 0 59415  78822.000000  0    3681863.786  -5322860.367  -2369870.797
10 0 59415  78942.000000  0    3673067.712  -5634149.450  -1502628.959
10 0 59415  79062.000000  0    3595579.848  -5846346.005   -608976.297
10 0 59415  79182.000000  0    3452485.495  -5954498.034    295385.943
10 0 59415  79302.000000  0    3248099.344  -5955550.144   1194546.476
10 0 59415  79422.000000  0    2987858.093  -5848423.525   2072672.661
10 0 59415  79542.000000  0    2678189.064  -5634053.979   2914299.485
10 0 59415  79662.000000  0    2326358.994  -5315389.251   3704608.959
10 0 59415  79782.000000  0    1940308.448  -4897346.988   4429695.995
10 0 59415  79902.000000  0    1528475.172  -4386733.253   5076816.371
10 0 59415  80022.000000  0    1099611.687  -3792124.234   5634611.138
10 0 59415  80142.000000  0     662599.189  -3123713.102   6093304.521
10 0 59415  80262.000000  0     226263.660  -2393126.871   6444868.864
10 0 59415  80382.000000  0    -200801.150  -1613218.902   6683158.050
10 0 59415  80502.000000  0    -610401.316   -797840.503   6804009.212
10 0 59415  80622.000000  0    -994898.726     38406.688   6805312.122
10 0 59415  80742.000000  0   -1347352.754    880432.657   6687043.569
10 0 59415  80862.000000  0   -1661645.106   1712930.746   6451267.352
10 0 59415  80982.000000  0   -1932586.273   2520655.045   6102100.633
10 0 59415  81102.000000  0   -2156001.946   3288699.898   5645646.325
10 0 59415  81222.000000  0   -2328797.704   4002776.603   5089892.281
10 0 59415  81342.000000  0   -2449002.074   4649483.793   4444578.556
10 0 59415  81462.000000  0   -2515786.075   5216565.943   3721031.711
10 0 59415  81582.000000  0   -2529458.748   5693154.028   2931968.523
10 0 59415  81702.000000  0   -2491438.211   6069981.906   2091272.110
10 0 59415  81822.000000  0   -2404199.381   6339574.315   1213745.169
10 0 59415  81942.000000  0   -2271198.768   6496401.446    314844.030
99
